     2.100          NAVIGATION                              RINEX VERSION / TYPE
fic2rin                                 07/03/2013 00:17:45 PGM / RUN BY / DATE
                                                            END OF HEADER
 3 13  7  2 21 59 44.0  .227684620768D-03  .477484718431D-11  .000000000000D+00
     .220000000000D+02 -.170937500000D+02  .517200114889D-08  .182300043247D+01
    -.113807618618D-05  .164456211496D-01  .838562846184D-05  .515370633316D+04
     .251984000000D+06 -.949949026108D-07  .299986975973D+01 -.469386577606D-06
     .935211223918D+00  .205062500000D+03  .130040599744D+01 -.816426864599D-08
     .435018120251D-09  .100000000000D+01  .174700000000D+04  .000000000000D+00
     .240000000000D+01  .000000000000D+00 -.465661287308D-08  .220000000000D+02
     .244806000000D+06  .400000000000D+01
 8 13  7  2 21 59 44.0  .713951885700D-05  .227373675443D-12  .000000000000D+00
     .120000000000D+02 -.362812500000D+02  .383801701167D-08 -.292278322405D+00
    -.177882611752D-05  .130928860744D-01  .405684113503D-05  .515371140289D+04
     .251984000000D+06  .154599547386D-06  .116161688338D+01  .987201929092D-07
     .997940229519D+00  .318031250000D+03 -.286734786864D+01 -.805212111745D-08
    -.339299847486D-10  .100000000000D+01  .174700000000D+04  .000000000000D+00
     .240000000000D+01  .000000000000D+00 -.419095158577D-08  .120000000000D+02
     .244806000000D+06  .400000000000D+01
10 13  7  2 21 59 44.0 -.855624675751D-04 -.125055521494D-11  .000000000000D+00
     .400000000000D+01  .372187500000D+02  .465840832712D-08 -.217543402676D+01
     .189244747162D-05  .124732675031D-01  .933744013309D-05  .515364516449D+04
     .251984000000D+06  .800937414169D-07 -.102841038320D+01 -.119209289551D-06
     .943146359294D+00  .190531250000D+03  .805062850122D+00 -.780818238499D-08
    -.222866426138D-09  .100000000000D+01  .174700000000D+04  .000000000000D+00
     .240000000000D+01  .000000000000D+00 -.279396772385D-08  .400000000000D+01
     .244806000000D+06  .400000000000D+01
15 13  7  2 21 59 44.0 -.125887803733D-03 -.170530256582D-11  .000000000000D+00
     .210000000000D+02  .101093750000D+03  .491413326480D-08  .231627415343D+01
     .518932938576D-05  .542690348811D-02  .583939254284D-05  .515378586006D+04
     .251984000000D+06 -.521540641785D-07 -.277535674761D-01  .186264514923D-08
     .940766283743D+00  .256718750000D+03  .164576562063D+00 -.834427614402D-08
     .105718689322D-09  .100000000000D+01  .174700000000D+04  .000000000000D+00
     .240000000000D+01  .000000000000D+00 -.102445483208D-07  .210000000000D+02
     .244806000000D+06  .400000000000D+01
 1 13  7  2 22  0  0.0  .449074432254D-04  .477484718431D-11  .000000000000D+00
     .490000000000D+02 -.178437500000D+02  .490377569051D-08  .910809223706D+00
    -.787898898125D-06  .203312502708D-02  .624172389507D-05  .515369032478D+04
     .252000000000D+06  .391155481339D-07 -.209095429957D+01 -.409781932831D-07
     .960026992955D+00  .254593750000D+03  .269447285550D+00 -.820355599675D-08
    -.263582407837D-09  .100000000000D+01  .174700000000D+04  .000000000000D+00
     .240000000000D+01  .000000000000D+00  .838190317154D-08  .490000000000D+02
     .244806000000D+06  .400000000000D+01
 2 13  7  2 22  0  0.0  .439871102571D-03  .181898940355D-11  .000000000000D+00
     .830000000000D+02 -.160312500000D+02  .536272337895D-08  .165194120642D+01
    -.782310962677D-06  .124509021407D-01  .682286918163D-05  .515367773247D+04
     .252000000000D+06 -.225380063057D-06 -.211341074601D+01  .197440385818D-06
     .938551172686D+00  .240906250000D+03 -.258155770787D+01 -.843570852398D-08
    -.322513433979D-09  .100000000000D+01  .174700000000D+04  .000000000000D+00
     .240000000000D+01  .000000000000D+00 -.176951289177D-07  .830000000000D+02
     .244806000000D+06  .400000000000D+01
 4 13  7  2 22  0  0.0  .261765439063D-03  .102318153949D-10  .000000000000D+00
     .360000000000D+02 -.147812500000D+02  .529700635586D-08 -.141900534398D+01
    -.691041350365D-06  .103264619829D-01  .622496008873D-05  .515356237984D+04
     .252000000000D+06  .225380063057D-06 -.209699310105D+01  .115483999252D-06
     .937578219519D+00  .245156250000D+03  .983905966307D+00 -.828105922507D-08
    -.225723688012D-09  .100000000000D+01  .174700000000D+04  .000000000000D+00
     .240000000000D+01  .000000000000D+00 -.605359673500D-08  .360000000000D+02
     .244806000000D+06  .400000000000D+01
 5 13  7  2 22  0  0.0 -.398016534746D-03 -.568434188608D-12  .000000000000D+00
     .430000000000D+02  .409687500000D+02  .459233414629D-08 -.237776596775D+01
     .209547579288D-05  .306779646780D-02  .100657343864D-04  .515365241623D+04
     .252000000000D+06  .000000000000D+00 -.104763116353D+01  .000000000000D+00
     .948308009726D+00  .179750000000D+03  .250354690495D+00 -.794068790438D-08
    -.310370071016D-09  .100000000000D+01  .174700000000D+04  .000000000000D+00
     .240000000000D+01  .000000000000D+00 -.102445483208D-07  .430000000000D+02
     .244806000000D+06  .400000000000D+01
 6 13  7  2 22  0  0.0  .160750932992D-03 -.173940861714D-10  .000000000000D+00
     .710000000000D+02 -.471875000000D+01  .501985195413D-08 -.263654257376D+01
    -.160187482834D-06  .811890710611D-02  .845454633236D-05  .515368027496D+04
     .252000000000D+06 -.188127160072D-06  .307957681178D+01  .149011611938D-07
     .941819148811D+00  .207968750000D+03 -.281947497754D+00 -.806926468869D-08
     .415731602604D-09  .100000000000D+01  .174700000000D+04  .000000000000D+00
     .340000000000D+01  .000000000000D+00 -.512227416039D-08  .710000000000D+02
     .244806000000D+06  .400000000000D+01
 9 13  7  2 22  0  0.0  .251817051321D-03  .261479726760D-11  .000000000000D+00
     .220000000000D+02 -.285312500000D+02  .413052919598D-08  .118853729853D+01
    -.183098018169D-05  .174152490217D-01  .382401049137D-05  .515277406502D+04
     .252000000000D+06 -.152736902237D-06  .104654471571D+01 -.383704900742D-06
     .983832747257D+00  .318468750000D+03  .168266102024D+01 -.821391357104D-08
    -.171435712414D-10  .100000000000D+01  .174700000000D+04  .000000000000D+00
     .240000000000D+01  .000000000000D+00 -.558793544769D-08  .220000000000D+02
     .244806000000D+06  .400000000000D+01
11 13  7  2 22  0  0.0 -.397152267396D-03 -.352429196937D-11  .000000000000D+00
     .100000000000D+03 -.618750000000D+01  .673599486694D-08  .485174778254D+00
    -.931322574615D-07  .141340100672D-01  .556930899620D-05  .515368081093D+04
     .252000000000D+06 -.121071934700D-06 -.239064645819D+01  .763684511185D-07
     .889014933486D+00  .234812500000D+03  .117840355674D+01 -.935110379672D-08
    -.857178562071D-10  .100000000000D+01  .174700000000D+04  .000000000000D+00
     .240000000000D+01  .000000000000D+00 -.116415321827D-07  .100000000000D+03
     .244806000000D+06  .400000000000D+01
12 13  7  2 22  0  0.0  .142623204738D-03  .204636307899D-11  .000000000000D+00
     .118000000000D+03 -.744687500000D+02  .398873757550D-08 -.350261019035D-01
    -.374205410480D-05  .452075654175D-02  .927224755287D-05  .515354487610D+04
     .252000000000D+06  .633299350739D-07  .212918149152D+01  .335276126862D-07
     .984455928415D+00  .216687500000D+03  .306246957649D+00 -.778139555493D-08
     .142863093678D-09  .100000000000D+01  .174700000000D+04  .000000000000D+00
     .240000000000D+01  .000000000000D+00 -.121071934700D-07  .118000000000D+03
     .244806000000D+06  .400000000000D+01
13 13  7  2 22  0  0.0  .103773083538D-03 -.363797880709D-11  .000000000000D+00
     .470000000000D+02  .879687500000D+02  .389016204086D-08  .262114656203D+01
     .466592609882D-05  .515766651370D-02  .559911131859D-05  .515373781967D+04
     .252000000000D+06  .111758708954D-07  .102766475288D+00  .577419996262D-07
     .981499859592D+00  .282031250000D+03  .216043822260D+01 -.778139555493D-08
     .785747015231D-10  .100000000000D+01  .174700000000D+04  .000000000000D+00
     .240000000000D+01  .000000000000D+00 -.111758708954D-07  .470000000000D+02
     .244806000000D+06  .400000000000D+01
14 13  7  2 22  0  0.0  .219778623432D-03 -.341060513165D-12  .000000000000D+00
     .470000000000D+02  .935625000000D+02  .398909473324D-08  .284598707177D+01
     .482983887196D-05  .708630087320D-02  .602565705776D-05  .515376625061D+04
     .252000000000D+06  .130385160446D-07  .732758242551D-01 -.726431608200D-07
     .974163086968D+00  .268406250000D+03 -.203705115335D+01 -.782246869436D-08
     .192508018732D-09  .100000000000D+01  .174700000000D+04  .000000000000D+00
     .240000000000D+01  .000000000000D+00 -.884756445885D-08  .470000000000D+02
     .244806000000D+06  .400000000000D+01
16 13  7  2 22  0  0.0 -.250680837780D-03  .454747350886D-12  .000000000000D+00
     .107000000000D+03 -.772812500000D+02  .389444793367D-08 -.224043449795D+01
    -.418350100517D-05  .713579019066D-02  .876002013683D-05  .515367125130D+04
     .252000000000D+06 -.521540641785D-07  .214758858803D+01 -.158324837685D-06
     .985151935098D+00  .226968750000D+03  .124632433864D+00 -.766817655319D-08
     .151077721565D-09  .100000000000D+01  .174700000000D+04  .000000000000D+00
     .240000000000D+01  .000000000000D+00 -.102445483208D-07  .107000000000D+03
     .244806000000D+06  .400000000000D+01
18 13  7  2 22  0  0.0  .261612702161D-03  .193267624127D-11  .000000000000D+00
     .290000000000D+02  .355312500000D+02  .502878089748D-08 -.172991939066D+01
     .176392495632D-05  .145114085171D-01  .985711812973D-05  .515361466980D+04
     .252000000000D+06  .335276126862D-06 -.104581856707D+01 -.856816768646D-07
     .926910723289D+00  .170906250000D+03 -.209690483881D+01 -.800926218935D-08
    -.351086052715D-09  .100000000000D+01  .174700000000D+04  .000000000000D+00
     .240000000000D+01  .000000000000D+00 -.111758708954D-07  .290000000000D+02
     .244806000000D+06  .400000000000D+01
